QIANFAN-105             
1 66047U 25233Q   25350.21495813  .00000070  00000+0  41221-4 0  9996
2 66047  88.9952  61.7672 0014527  53.6699 306.5817 13.96266624  8476
QIANFAN-106             
1 66048U 25233R   25349.75562417  .00000042  00000+0  27196-4 0  9993
2 66048  88.9955  61.8304 0016783  36.2944 323.9359 13.81207502  8398
QIANFAN-107             
1 66049U 25233S   25349.82229381  .00000041  00000+0  27482-4 0  9999
2 66049  88.9961  61.8235 0016074  38.4026 321.8282 13.78283629  8401
QIANFAN-108             
1 66050U 25233T   25350.33175358  .00000037  00000+0  24065-4 0  9992
2 66050  88.9932  61.7678 0015936  43.4061 316.8358 13.78736258  8478
